H-2A R/B                
1 28932U 06002B   26113.99253191  .00005766  00000+0  28278-3 0  9997
2 28932  98.2499 264.9710 0052552  87.8455 272.8793 15.17349909101303
RESURS-DK 1             
1 29228U 06021A   26114.15690881  .00001812  00000+0  10854-3 0  9996
2 29228  69.9297 119.3901 0003124 343.6065  16.5000 15.12977179 94406
CZ-4B R/B               
1 29507U 06046C   26114.11870522  .00003356  00000+0  16920-3 0  9996
2 29507  97.5510 158.8971 0034607 109.5383 250.9592 15.17333156 66931
CZ-2C R/B               
1 31114U 07010B   26114.16628664  .00000083  00000+0  56960-4 0  9991
2 31114  98.4034 225.1770 0059473 160.9765 199.3653 14.20261713986170
COSMO-SKYMED 1          
1 31598U 07023A   26114.19266696  .00001954  00000+0  17580-3 0  9999
2 31598  97.8870 305.5995 0001216 101.0317 259.1041 14.96827855 21714
COSMOS 2428             
1 31792U 07029A   26114.12668021 -.00000197  00000+0 -80045-4 0  9999
2 31792  70.9391 107.9729 0009164 227.0906 132.9447 14.12945755970519
SL-16 R/B               
1 31793U 07029B   26114.17060700  .00000292  00000+0  17619-3 0  9995
2 31793  70.9742  76.7770 0002538 268.2717 179.3234 14.14843823971801
KORONAS-FOTON           
1 33504U 09003A   26113.35465919  .00009437  00000+0  20248-3 0  9993
2 33504  82.4309 229.3984 0009955   0.6503 359.4756 15.44498639952639
CZ-2C R/B               
1 37731U 11030B   26113.62110615  .00000657  00000+0  89100-4 0  9990
2 37731  97.8614  70.0127 0051751 202.6467 331.1724 14.81350183796749
H-2A R/B                
1 38341U 12025E   26113.62935797  .00001109  00000+0  10462-3 0  9996
2 38341  98.4797  84.3060 0044423 164.0074 196.2559 14.95429254754935
SHIJIAN-16 (SJ-16)      
1 39358U 13057A   26114.21308541  .00000361  00000+0  38006-4 0  9992
2 39358  74.9710  98.8971 0016119 356.0896   4.0163 14.92469570678298
SL-4 R/B                
1 39679U 14021B   26114.05403032  .00009390  00000+0  20401-3 0  9993
2 39679  51.6057 115.7061 0092751 268.9804  90.0553 15.40634846663268
